[{"OBJECT_NAME":"SUPERVIEW-1 03","OBJECT_ID":"2018-002A","EPOCH":"2026-03-09T22:14:33.880992","MEAN_MOTION":15.35916978,"ECCENTRICITY":0.00509393,"INCLINATION":97.3162,"RA_OF_ASC_NODE":154.1458,"ARG_OF_PERICENTER":177.0269,"MEAN_ANOMALY":183.1288,"EPHEMERIS_TYPE":0,"CLASSIFICATION_TYPE":"U","NORAD_CAT_ID":43099,"ELEMENT_SET_NO":999,"REV_AT_EPOCH":45311,"BSTAR":0.00062641306,"MEAN_MOTION_DOT":0.00022818,"MEAN_MOTION_DDOT":0},{"OBJECT_NAME":"STARLINK-35779","OBJECT_ID":"2025-294T","EPOCH":"2026-03-09T21:48:33.140160","MEAN_MOTION":15.27584387,"ECCENTRICITY":0.00014375,"INCLINATION":43.0045,"RA_OF_ASC_NODE":36.7566,"ARG_OF_PERICENTER":242.4756,"MEAN_ANOMALY":117.595,"EPHEMERIS_TYPE":0,"CLASSIFICATION_TYPE":"U","NORAD_CAT_ID":67047,"ELEMENT_SET_NO":999,"REV_AT_EPOCH":1483,"BSTAR":0.001309709,"MEAN_MOTION_DOT":0.00035959,"MEAN_MOTION_DDOT":0}]
